IRIDIUM 63              
1 25286U 98021B   25145.61101414  .00000374  00000+0  12070-3 0  9994
2 25286  86.3966  91.6027 0002305  81.8736 278.2722 14.36528708420607
IRIDIUM 69              
1 25319U 98026A   25145.62340392  .00000427  00000+0  12690-3 0  9994
2 25319  86.3956 104.9577 0004676  92.5718 267.6017 14.40945425419817
IRIDIUM 71              
1 25320U 98026B   25145.42492762  .00000393  00000+0  11577-3 0  9998
2 25320  86.3956  99.7353 0003550 122.2683 237.8861 14.41139900420311
IRIDIUM 73              
1 25344U 98032C   25145.66000141  .00000524  00000+0  12545-3 0  9995
2 25344  86.4426  56.3831 0002976  81.9231 278.2312 14.51690898427294
IRIDIUM 82              
1 25467U 98051A   25145.68567966  .00027125  00000+0  79593-3 0  9999
2 25467  86.3651 120.7937 0088114  24.5602 335.9803 15.31158670420515
